NORAD_CAT_ID,OBJECT_NAME,OBJECT_TYPE,EPOCH,MEAN_MOTION,ECCENTRICITY,INCLINATION,RA_OF_ASC_NODE,ARG_OF_PERICENTER,MEAN_ANOMALY,BSTAR,MEAN_MOTION_DOT,MEAN_MOTION_DDOT,TLE_LINE0,TLE_LINE1,TLE_LINE2,SEMIMAJOR_AXIS,PERIOD,APOGEE,PERIGEE,DECAYED
51726.0,STARLINK-3527,PAYLOAD,2022-11-06 03:15:17,15.08814219,0.0002077,53.2207,33.9229,22.49,337.6183,-0.00029647,-5e-05,0.0,0 STARLINK-3527,1 51726U 22016N   22310.13561803 -.00005000  00000-0 -29647-3 0  9995,2 51726  53.2207  33.9229 0002077  22.4900 337.6183 15.08814219 40513,6917.959,95.439,541.261,538.387,0.0
51726.0,STARLINK-3527,PAYLOAD,2022-11-06 11:12:12,15.08819705,0.0002432,53.218,32.4359,33.1234,326.991,-0.00013809,-2.484e-05,0.0,0 STARLINK-3527,1 51726U 22016N   22310.46681559 -.00002484  00000-0 -13809-3 0  9998,2 51726  53.2180  32.4359 0002432  33.1234 326.9910 15.08819705 40564,6917.941999999999,95.439,541.49,538.125,0.0
51726.0,STARLINK-3527,PAYLOAD,2022-11-07 01:30:40,15.08830279,0.0002296,53.2179,29.7596,36.9189,323.1961,2.7892e-05,1.56e-06,0.0,0 STARLINK-3527,1 51726U 22016N   22311.06297076  .00000156  00000-0  27892-4 0  9992,2 51726  53.2179  29.7596 0002296  36.9189 323.1961 15.08830279 40656,6917.91,95.438,541.363,538.187,0.0
51726.0,STARLINK-3527,PAYLOAD,2022-11-07 12:38:23,15.08819714,0.0002477,53.2178,27.6776,33.7909,326.3241,0.0001706,2.426e-05,0.0,0 STARLINK-3527,1 51726U 22016N   22311.52666125  .00002426  00000-0  17060-3 0  9995,2 51726  53.2178  27.6776 0002477  33.7909 326.3241 15.08819714 40723,6917.941999999999,95.439,541.521,538.094,0.0
51726.0,STARLINK-3527,PAYLOAD,2022-11-07 14:13:46,15.08845222,0.0002533,53.2177,27.3802,31.0492,329.0649,-0.00015345,-2.730000000000001e-05,0.0,0 STARLINK-3527,1 51726U 22016N   22311.59289398 -.00002730  00000-0 -15345-3 0  9999,2 51726  53.2177  27.3802 0002533  31.0492 329.0649 15.08845222 40736,6917.864000000001,95.437,541.482,537.977,0.0
51726.0,STARLINK-3527,PAYLOAD,2022-11-08 09:18:23,15.0884392,0.0002551,53.2171,23.8136,31.3812,328.7332,0.00035111,5.305e-05,0.0,0 STARLINK-3527,1 51726U 22016N   22312.38777479  .00005305  00000-0  35111-3 0  9991,2 51726  53.2171  23.8136 0002551  31.3812 328.7332 15.08843920 39792,6917.868,95.437,541.498,537.969,0.0
51726.0,STARLINK-3527,PAYLOAD,2022-11-09 12:19:55,15.08850278,0.0002318,53.2171,18.7562,34.0592,326.0549,8.6785e-05,1.094e-05,0.0,0 STARLINK-3527,1 51726U 22016N   22313.51384159  .00001094  00000-0  86785-4 0  9991,2 51726  53.2171  18.7562 0002318  34.0592 326.0549 15.08850278 39968,6917.849,95.437,541.318,538.11,0.0
51726.0,STARLINK-3527,PAYLOAD,2022-11-10 10:35:19,15.08852709,0.0002441,53.2176,14.5942,36.0927,324.0229,-7.7675e-05,-1.525e-05,0.0,0 STARLINK-3527,1 51726U 22016N   22314.44119836 -.00001525  00000-0 -77675-4 0  9991,2 51726  53.2176  14.5942 0002441  36.0927 324.0229 15.08852709 40102,6917.842,95.437,541.395,538.018,0.0
51726.0,STARLINK-3527,PAYLOAD,2022-11-11 04:04:34,15.08838715,0.0002578,53.2178,11.3233,32.5707,327.5444,-4.0386e-05,-9.31e-06,0.0,0 STARLINK-3527,1 51726U 22016N   22315.16984462 -.00000931  00000-0 -40386-4 0  9995,2 51726  53.2178  11.3233 0002578  32.5707 327.5444 15.08838715 41277,6917.884,95.438,541.533,537.966,0.0
51726.0,STARLINK-3527,PAYLOAD,2022-11-11 10:26:07,15.08829917,0.0002361,53.2177,10.1329,33.9946,326.1197,-8.942700000000001e-05,-1.711e-05,0.0,0 STARLINK-3527,1 51726U 22016N   22315.43481155 -.00001711  00000-0 -89427-4 0  9992,2 51726  53.2177  10.1329 0002361  33.9946 326.1197 15.08829917 41318,6917.911,95.438,541.41,538.143,0.0
51726.0,STARLINK-3527,PAYLOAD,2022-11-12 03:55:21,15.08844689,0.0002431,53.2173,6.8617,32.6055,327.5087,5.6918e-05,6.18e-06,0.0,0 STARLINK-3527,1 51726U 22016N   22316.16344098  .00000618  00000-0  56918-4 0  9999,2 51726  53.2173   6.8617 0002431  32.6055 327.5087 15.08844689 41429,6917.866,95.437,541.413,538.049,0.0
51726.0,STARLINK-3527,PAYLOAD,2022-11-12 13:27:40,15.08844985,0.0002542,53.2179,5.0789,31.3006,328.8137,5.366399999999999e-05,5.66e-06,0.0,0 STARLINK-3527,1 51726U 22016N   22316.56088085  .00000566  00000-0  53664-4 0  9991,2 51726  53.2179   5.0789 0002542  31.3006 328.8137 15.08844985 40429,6917.865,95.437,541.489,537.972,0.0
51726.0,STARLINK-3527,PAYLOAD,2022-11-12 19:49:12,15.08842067,0.0002468,53.2181,3.8895,31.3174,328.7965,9.8934e-05,1.287e-05,0.0,0 STARLINK-3527,1 51726U 22016N   22316.82584127  .00001287  00000-0  98934-4 0  9998,2 51726  53.2181   3.8895 0002468  31.3174 328.7965 15.08842067 40460,6917.874,95.437,541.446,538.0319999999998,0.0
51726.0,STARLINK-3527,PAYLOAD,2022-11-13 03:46:08,15.08839681,0.0002705,53.2177,2.4028,24.3316,335.7803,0.00011885,1.604e-05,0.0,0 STARLINK-3527,1 51726U 22016N   22317.15704221  .00001604  00000-0  11885-3 0  9996,2 51726  53.2177   2.4028 0002705  24.3316 335.7803 15.08839681 41572,6917.880999999999,95.438,541.618,537.875,0.0
51726.0,STARLINK-3527,PAYLOAD,2022-11-13 10:07:41,15.08834268,0.0002829,53.2181,1.2131,19.3002,340.8096,7.092100000000001e-05,8.400000000000001e-06,0.0,0 STARLINK-3527,1 51726U 22016N   22317.42200695  .00000840  00000-0  70921-4 0  9990,2 51726  53.2181   1.2131 0002829  19.3002 340.8096 15.08834268 41614,6917.898,95.438,541.72,537.806,0.0
51726.0,STARLINK-3527,PAYLOAD,2022-11-14 11:33:52,15.08837555,0.0002447,53.2175,356.4554,31.8652,328.2488,-6.104899999999999e-05,-1.26e-05,0.0,0 STARLINK-3527,1 51726U 22016N   22318.48185273 -.00001260  00000-0 -61049-4 0  9991,2 51726  53.2175 356.4554 0002447  31.8652 328.2488 15.08837555 40714,6917.888000000001,95.438,541.446,538.06,0.0
51726.0,STARLINK-3527,PAYLOAD,2022-11-14 19:30:47,15.08836989,0.0002503,53.2177,354.9679,30.572,329.5417,4.7673e-05,4.7e-06,0.0,0 STARLINK-3527,1 51726U 22016N   22318.81305031  .00000470  00000-0  47673-4 0  9991,2 51726  53.2177 354.9679 0002503  30.5720 329.5417 15.08836989 41821,6917.89,95.438,541.486,538.023,0.0
51726.0,STARLINK-3527,PAYLOAD,2022-11-15 09:49:16,15.0883422,0.0002583,53.2174,352.2911,28.6432,331.4702,-1.1051e-05,-4.64e-06,0.0,0 STARLINK-3527,1 51726U 22016N   22319.40921422 -.00000464  00000-0 -11051-4 0  9991,2 51726  53.2174 352.2911 0002583  28.6432 331.4702 15.08834220 40851,6917.898,95.438,541.55,537.976,0.0
51726.0,STARLINK-3527,PAYLOAD,2022-11-15 20:56:57,15.0883899,0.0002573,53.2172,350.2088,29.4052,330.7084,0.00011059,1.472e-05,0.0,0 STARLINK-3527,1 51726U 22016N   22319.87288889  .00001472  00000-0  11059-3 0  9990,2 51726  53.2172 350.2088 0002573  29.4052 330.7084 15.08838990 41986,6917.8830000000025,95.438,541.528,537.969,0.0
51726.0,STARLINK-3527,PAYLOAD,2022-11-16 11:15:26,15.08834118,0.0002587,53.2173,347.5333,29.657,330.4568,8.7711e-05,1.108e-05,0.0,0 STARLINK-3527,1 51726U 22016N   22320.46905481  .00001108  00000-0  87711-4 0  9996,2 51726  53.2173 347.5333 0002587  29.6570 330.4568 15.08834118 42074,6917.898,95.438,541.553,537.974,0.0
51726.0,STARLINK-3527,PAYLOAD,2022-11-16 19:12:21,15.08841993,0.0002539,53.2174,346.0469,31.7409,328.3736,8.6219e-05,1.084e-05,0.0,0 STARLINK-3527,1 51726U 22016N   22320.80025013  .00001084  00000-0  86219-4 0  9993,2 51726  53.2174 346.0469 0002539  31.7409 328.3736 15.08841993 42129,6917.874,95.437,541.496,537.9830000000002,0.0
51726.0,STARLINK-3527,PAYLOAD,2022-11-17 11:06:12,15.08840129,0.0002823,53.218,343.0741,27.6618,332.4524,8.2153e-05,1.019e-05,0.0,0 STARLINK-3527,1 51726U 22016N   22321.46265001  .00001019  00000-0  82153-4 0  9990,2 51726  53.2180 343.0741 0002823  27.6618 332.4524 15.08840129 41162,6917.88,95.438,541.698,537.7919999999998,0.0
51726.0,STARLINK-3527,PAYLOAD,2022-11-17 19:03:08,15.08841389,0.0002516,53.2182,341.5879,32.5888,327.5259,8.5268e-05,1.069e-05,0.0,0 STARLINK-3527,1 51726U 22016N   22321.79384780  .00001069  00000-0  85268-4 0  9997,2 51726  53.2182 341.5879 0002516  32.5888 327.5259 15.08841389 41217,6917.876,95.437,541.482,538.001,0.0
51726.0,STARLINK-3527,PAYLOAD,2022-11-17 22:13:54,15.08843946,0.0002648,53.2179,340.9929,27.8528,332.2605,5.529e-05,5.92e-06,0.0,0 STARLINK-3527,1 51726U 22016N   22321.92632610  .00000592  00000-0  55290-4 0  9992,2 51726  53.2179 340.9929 0002648  27.8528 332.2605 15.08843946 42294,6917.868,95.437,541.565,537.901,0.0
51726.0,STARLINK-3527,PAYLOAD,2022-11-18 10:56:59,15.0883922,0.0002719,53.217,338.6157,28.5801,331.534,1.8134e-05,0.0,0.0,0 STARLINK-3527,1 51726U 22016N   22322.45624976  .00000000  00000-0  18134-4 0  9997,2 51726  53.2170 338.6157 0002719  28.5801 331.5340 15.08839220 41313,6917.8830000000025,95.438,541.629,537.867,0.0
51726.0,STARLINK-3527,PAYLOAD,2022-11-19 10:47:46,15.08839927,0.0002668,53.2169,334.153,28.0101,332.1035,4.1013e-06,-2.23e-06,0.0,0 STARLINK-3527,1 51726U 22016N   22323.44984775 -.00000223  00000-0  41013-5 0  9994,2 51726  53.2169 334.1530 0002668  28.0101 332.1035 15.08839927 41466,6917.880999999999,95.438,541.591,537.9,0.0
51726.0,STARLINK-3527,PAYLOAD,2022-11-20 01:06:14,15.08839771,0.0002678,53.2171,331.4757,28.5101,331.6037,7.7402e-05,9.44e-06,0.0,0 STARLINK-3527,1 51726U 22016N   22324.04600392  .00000944  00000-0  77402-4 0  9990,2 51726  53.2171 331.4757 0002678  28.5101 331.6037 15.08839771 42617,6917.880999999999,95.438,541.599,537.893,0.0
51726.0,STARLINK-3527,PAYLOAD,2022-11-20 10:38:34,15.08835137,0.0002678,53.2173,329.6915,29.3169,330.7973,-6.6717e-06,-3.95e-06,0.0,0 STARLINK-3527,1 51726U 22016N   22324.44345095 -.00000395  00000-0 -66717-5 0  9990,2 51726  53.2173 329.6915 0002678  29.3169 330.7973 15.08835137 42674,6917.895,95.438,541.613,537.908,0.0
51726.0,STARLINK-3527,PAYLOAD,2022-11-21 07:18:35,15.08826969,0.0002736,53.2179,325.8259,30.3721,329.7429,8.829799999999999e-05,1.117e-05,0.0,0 STARLINK-3527,1 51726U 22016N   22325.30457622  .00001117  00000-0  88298-4 0  9994,2 51726  53.2179 325.8259 0002736  30.3721 329.7429 15.08826969 41744,6917.92,95.438,541.678,537.8919999999998,0.0
